ONEWEB-0201             
1 48241U 21031AH  21306.90486127 -.00000151  00000-0 -44234-3 0  9994
2 48241  87.9031 265.0788 0001882  79.6124 280.5217 13.14499856 26714
ONEWEB-0207             
1 48242U 21031AJ  21306.95563117  .00000338  00000-0  87701-3 0  9996
2 48242  87.9050 265.0768 0001584  70.6561 289.4740 13.14503414 26635
ONEWEB-0208             
1 48243U 21031AK  21306.93235706 -.00000100  00000-0 -30500-3 0  9999
2 48243  87.9015 265.0632 0002524  76.3522 283.7888 13.14504350 26643
ONEWEB-0200             
1 48244U 21031AL  21306.89642012 -.00000039  00000-0 -13972-3 0  9992
2 48244  87.9011 265.0481 0002576  74.8199 285.3215 13.14503859 26568
ONEWEB-0217             
1 48245U 21031AM  21307.37004228 -.00000159  00000-0 -46369-3 0  9997
2 48245  87.9054 264.9865 0002561  75.1672 284.9741 13.14504518 26588
ONEWEB-0211             
1 48767U 21045A   21307.58334491  .00010736  00000-0  28455-1 0  9996
2 48767  87.9170 234.5316 0002352  83.8566 194.5077 13.15540438 23785
ONEWEB-0223             
1 48768U 21045B   21307.58334491  .00013071  00000-0  34642-1 0  9997
2 48768  87.9192 234.5362 0002473  88.2827  90.0382 13.15537975 23785
ONEWEB-0230             
1 48769U 21045C   21307.58334491  .00010963  00000-0  29056-1 0  9998
2 48769  87.9116 234.4812 0002363  94.1595 214.2606 13.15541749 24028
ONEWEB-0237             
1 48770U 21045D   21307.58334491  .00012282  00000-0  32553-1 0  9992
2 48770  87.9096 234.3898 0002272  96.9543 261.4088 13.15536606 23766
ONEWEB-0235             
1 48771U 21045E   21307.58334491  .00014503  00000-0  38436-1 0  9997
2 48771  87.9123 234.3812 0002617 103.0076  25.3755 13.15535699 23745
ONEWEB-0242             
1 48772U 21045F   21307.58334491  .00013615  00000-0  36083-1 0  9997
2 48772  87.9139 234.5394 0002329  86.0283  72.3385 13.15537156 23796
ONEWEB-0241             
1 48773U 21045G   21307.58334491  .00011818  00000-0  31321-1 0  9991
2 48773  87.9119 234.5498 0002738  78.9414 139.3887 13.15539613 23702
ONEWEB-0243             
1 48774U 21045H   21307.58334491  .00014249  00000-0  37762-1 0  9998
2 48774  87.9120 234.4253 0002083  98.3333 329.9668 13.15537136 23737
ONEWEB-0222             
1 48775U 21045J   21307.58334491  .00014466  00000-0  38337-1 0  9999
2 48775  87.9118 234.4658 0002346  85.4280  32.9475 13.15539834 23761
ONEWEB-0244             
1 48776U 21045K   21307.58334491  .00000013  00000-0  00000+0 0  9997
2 48776  88.0038 234.5691 0008356  93.0048 201.1914 13.35424774 24304
ONEWEB-0247             
1 48777U 21045L   21307.34710355  .00000063  00000-0  13282-3 0  9994
2 48777  87.9067 234.5602 0002468  99.8584 260.2825 13.15546369 23752
ONEWEB-0245             
1 48778U 21045M   21307.58334491  .00014095  00000-0  37356-1 0  9990
2 48778  87.9122 234.3817 0002443  74.8882 343.5403 13.15536201 23759
ONEWEB-0229             
1 48779U 21045N   21307.58334491  .00014596  00000-0  38682-1 0  9990
2 48779  87.9121 234.3826 0002446  87.1498   1.1577 13.15537794 23782
ONEWEB-0228             
1 48780U 21045P   21306.91667824 -.00043901  00000-0 -11717+0 0  9999
2 48780  87.9092 234.5802 0001936  86.9802  15.8217 13.15570307  3289
ONEWEB-0232             
1 48781U 21045Q   21307.58334491  .00013628  00000-0  36121-1 0  9994
2 48781  87.9144 234.5315 0002479  76.8267 331.5205 13.15534159 24017
ONEWEB-0231             
1 48782U 21045R   21307.58334491  .00013935  00000-0  36931-1 0  9995
2 48782  87.9144 234.5001 0002299  93.7592  54.6196 13.15535847 23723
ONEWEB-0234             
1 48783U 21045S   21307.58334491  .00013086  00000-0  34685-1 0  9997
2 48783  87.9134 234.5066 0002141  72.2684 316.1409 13.15531180 23857
ONEWEB-0238             
1 48784U 21045T   21307.58334491  .00011336  00000-0  30046-1 0  9991
2 48784  87.9137 234.4700 0002185  96.6538 231.7319 13.15538371 23740
ONEWEB-0240             
1 48785U 21045U   21307.58334491  .00011638  00000-0  30844-1 0  9993
2 48785  87.9170 234.4897 0002845  81.0664 147.2491 13.15543270 23775
ONEWEB-0246             
1 48786U 21045V   21307.58334491  .00011090  00000-0  29392-1 0  9992
2 48786  87.9133 234.5316 0002230  91.9791 156.3830 13.15542660 23636
ONEWEB-0210             
1 48787U 21045W   21307.58334491  .00012420  00000-0  32917-1 0  9998
2 48787  87.9112 234.5304 0002014 110.2543 258.0876 13.15537634 23692
ONEWEB-0214             
1 48788U 21045X   21307.58334491  .00011052  00000-0  29293-1 0  9992
2 48788  87.9123 234.5314 0001691 115.0770 203.2235 13.15539905 23651
ONEWEB-0221             
1 48789U 21045Y   21306.91667824 -.00042542  00000-0 -11352+0 0  9993
2 48789  87.9145 234.6639 0002063  86.0252 286.7822 13.15574314  3281
ONEWEB-0213             
1 48790U 21045Z   21306.91667824  .00025550  00000-0  67666-1 0  9994
2 48790  87.9124 234.5500 0002166  91.5091 341.3315 13.15527684 23737
ONEWEB-0212             
1 48791U 21045AA  21307.58334491  .00014372  00000-0  38087-1 0  9995
2 48791  87.9124 234.4564 0001871  67.5111  10.8396 13.15540187 23814
ONEWEB-0227             
1 48792U 21045AB  21307.58334491  .00014627  00000-0  38763-1 0  9990
2 48792  87.9149 234.4004 0002378  80.5296  27.8358 13.15538950 23757
ONEWEB-0226             
1 48793U 21045AC  21307.58334491  .00014292  00000-0  37878-1 0  9995
2 48793  87.9126 234.4118 0002128 105.1680  33.1888 13.15536037 23711
ONEWEB-0224             
1 48794U 21045AD  21307.58334491  .00010766  00000-0  28534-1 0  9997
2 48794  87.9161 234.5372 0002232  63.7431 234.6092 13.15538566 23638
ONEWEB-0233             
1 48795U 21045AE  21307.58334491  .00012400  00000-0  32862-1 0  9994
2 48795  87.9135 234.3982 0002380  74.7794 133.5553 13.15541870 23645
ONEWEB-0190             
1 48796U 21045AF  21307.58334491  .00011717  00000-0  31055-1 0  9998
2 48796  87.9127 234.3779 0002968 104.3213 234.0456 13.15536708 23732
ONEWEB-0236             
1 48797U 21045AG  21307.58334491  .00010910  00000-0  28914-1 0  9993
2 48797  87.9167 234.5348 0002088  79.1830 179.1673 13.15540489 23616
ONEWEB-0248             
1 48798U 21045AH  21307.58334491  .00012434  00000-0  32952-1 0  9994
2 48798  87.9159 234.5477 0003111  85.3764 113.0072 13.15540935 23788
ONEWEB-0225             
1 48799U 21045AJ  21307.58334491  .00014480  00000-0  38373-1 0  9991
2 48799  87.9115 234.4904 0002714  91.8907   6.4144 13.15538020 23804
ONEWEB-0215             
1 48800U 21045AK  21307.58334491  .00011317  00000-0  29993-1 0  9998
2 48800  87.9137 234.5312 0003105  90.8773 147.4876 13.15542250 23651
ONEWEB-0216             
1 48801U 21045AL  21307.58334491  .00012896  00000-0  34176-1 0  9991
2 48801  87.9170 234.4678 0001625  89.2176  99.1571 13.15542345 23668
ONEWEB-0239             
1 48802U 21045AM  21307.58334491  .00013425  00000-0  35578-1 0  9998
2 48802  87.9117 234.5025 0002986  91.8974  76.4283 13.15541626 23729
ONEWEB-0249             
1 48967U 21060A   21307.25001157 -.00014840  00000-0 -38905-1 0  9992
2 48967  87.9193 204.3345 0001567  80.9052  48.9174 13.16611529 18925
ONEWEB-0250             
1 48968U 21060B   21307.25001157 -.00014139  00000-0 -37068-1 0  9993
2 48968  87.9176 204.3469 0002223  79.8497  28.1399 13.16609669 18903
ONEWEB-0251             
1 48969U 21060C   21307.25001157 -.00035832  00000-0 -11116-2 0  9994
2 48969  87.4279 193.7019 0010903 154.9916 336.5167 15.33565967 20398
ONEWEB-0252             
1 48970U 21060D   21307.25001157 -.00010487  00000-0 -27494-1 0  9990
2 48970  87.9173 204.3717 0001794  91.1391 245.9935 13.16601879 18978
ONEWEB-0253             
1 48971U 21060E   21307.58334491  .00050081  00000-0  13030+0 0  9998
2 48971  87.9187 204.3067 0002120  93.7021  66.0414 13.16571282 18938
ONEWEB-0254             
1 48972U 21060F   21307.25001157 -.00010511  00000-0 -27558-1 0  9991
2 48972  87.9183 204.3331 0002040  93.1925 254.9228 13.16600888 18898
ONEWEB-0255             
1 48973U 21060G   21307.25001157 -.00015289  00000-0 -40090-1 0  9995
2 48973  87.9216 204.3690 0002038  88.6932  73.8732 13.16601828 18970
ONEWEB-0256             
1 48974U 21060H   21307.25001157 -.00011475  00000-0 -30082-1 0  9999
2 48974  87.9187 204.3681 0001347  71.4289 331.1076 13.16608577 18941
ONEWEB-0257             
1 48975U 21060J   21307.25001157 -.00013231  00000-0 -34689-1 0  9999
2 48975  87.9186 204.3876 0001671  90.9581 158.9723 13.16601700 18897
ONEWEB-0258             
1 48976U 21060K   21307.25001157 -.00013700  00000-0 -35918-1 0  9997
2 48976  87.9194 204.3689 0001879  79.4198 159.4493 13.16607013 18898
ONEWEB-0259             
1 48977U 21060L   21307.25001157 -.00012834  00000-0 -33648-1 0  9993
2 48977  87.9177 204.3528 0002321  92.8436 167.9896 13.16603239 18931
ONEWEB-0260             
1 48978U 21060M   21307.25001157 -.00011484  00000-0 -30111-1 0  9996
2 48978  87.9182 204.3731 0001022 110.5411 183.0505 13.16598270 18914
ONEWEB-0261             
1 48979U 21060N   21307.58334491  .00047159  00000-0  12273+0 0  9996
2 48979  87.9198 204.3006 0001763  93.8623 142.2599 13.16573987 19028
ONEWEB-0262             
1 48980U 21060P   21307.58334491  .00043839  00000-0  11413+0 0  9994
2 48980  87.9179 204.2323 0002037  98.3587 225.0633 13.16572474 18998
ONEWEB-0263             
1 48981U 21060Q   21307.25001157 -.00011267  00000-0 -29537-1 0  9999
2 48981  87.9180 204.2797 0002444  94.6266 297.0066 13.16605976 18916
ONEWEB-0264             
1 48982U 21060R   21307.25001157 -.00014762  00000-0 -38703-1 0  9998
2 48982  87.9222 204.1964 0001886  82.0141 135.0742 13.16607942 18907
ONEWEB-0265             
1 48983U 21060S   21306.91667824  .00035091  00000-0  80977-3 0  9998
2 48983  87.4037 193.0859 0008124 139.2735 143.8032 15.42370085  3619
ONEWEB-0266             
1 48984U 21060T   21307.25001157 -.00014539  00000-0 -38118-1 0  9992
2 48984  87.9177 204.3194 0001831  72.6895  46.2581 13.16608560 18907
